GAOFEN 12-1             
1 44819U 19082A   22229.78030304  .00000231  00000+0  37094-4 0  9990
2 44819  97.8597 248.9033 0001529  76.7973 283.3406 14.80261339147014
CSG-1                   
1 44873U 19092A   22229.76047305  .00000229  00000+0  35333-4 0  9999
2 44873  97.8891  52.5418 0001436  82.9934 277.1441 14.82160520144187
NUSAT-7 (SOPHIE)        
1 45017U 20003B   22229.83050747  .00009216  00000+0  26415-3 0  9991
2 45017  97.2105 290.3990 0013238 134.2782 337.2868 15.36030675144641
NUSAT-8 (MARIE)         
1 45018U 20003C   22229.59203824  .00011417  00000+0  29631-3 0  9990
2 45018  97.2242 292.2328 0011818 134.6100   3.0623 15.39069910144666
NUSAT-6 (HYPATIA)       
1 46272U 20061A   22228.92063842  .00005301  00000+0  21149-3 0  9998
2 46272  97.3252 298.6178 0005990 205.6219 154.4720 15.25580647108443
NEMO-HD                 
1 46277U 20061F   22229.84946259  .00002178  00000+0  11105-3 0  9997
2 46277  97.3878 299.0285 0001497  29.8898  81.8597 15.17785889108174
NUSAT-12 (DOROTHY)      
1 46827U 20079A   22229.64686762  .00011489  00000+0  30077-3 0  9999
2 46827  97.1940 298.5299 0009388  83.7269  60.8544 15.38827394 99517
NUSAT-9 (ALICE)         
1 46828U 20079B   22229.62869824  .00011962  00000+0  30870-3 0  9997
2 46828  97.1822 298.1050 0004480 113.2483  28.2198 15.39292420 99557
NUSAT-11 (CORA)         
1 46829U 20079C   22229.62868025  .00011909  00000+0  30613-3 0  9996
2 46829  97.1870 298.4474 0007826  95.6359  45.2067 15.39393357 99540
NUSAT-15 (KATHERINE)    
1 46830U 20079D   22229.75277399  .00011677  00000+0  30140-3 0  9997
2 46830  97.2018 299.8342 0005083  73.0731  79.8234 15.39291407 99578
NUSAT-14 (HEDY)         
1 46831U 20079E   22229.88554095  .00012494  00000+0  31290-3 0  9998
2 46831  97.1981 299.8126 0008942  82.9268  37.1400 15.40170381 99603
NUSAT-10 (CAROLINE)     
1 46832U 20079F   22229.90660382  .00010778  00000+0  28025-3 0  9994
2 46832  97.1986 299.5155 0008695  93.5379  24.2795 15.39060336 99581
NUSAT-13 (EMMY)         
1 46833U 20079G   22229.65271086  .00010679  00000+0  27966-3 0  9999
2 46833  97.1980 299.2412 0008929  94.7122  51.6264 15.38842302 99549
NUSAT-17 (MARY)         
1 46835U 20079J   22229.88304736  .00010837  00000+0  28562-3 0  9994
2 46835  97.1977 299.2165 0009165 103.8855  16.7074 15.38639321 99568
NUSAT-18 (VERA)         
1 46836U 20079K   22229.65757870  .00011383  00000+0  29491-3 0  9990
2 46836  97.1991 299.4370 0009852 111.0792  36.9060 15.39146570 99557
NUSAT-16 (LISE)         
1 46840U 20079P   22229.75419843  .00011823  00000+0  30645-3 0  9993
2 46840  97.2032 299.6488 0006935 103.7844  49.0554 15.39146150 99564
SENTINEL-6              
1 46984U 20086A   22228.24707217 -.00000061  00000+0  00000+0 0  9999
2 46984  66.0425 164.8302 0007942 264.8557  95.1551 12.80930259 81025
