[{"OBJECT_NAME":"GAOFEN 12-1","OBJECT_ID":"2019-082A","EPOCH":"2022-08-17T18:43:38.182656","MEAN_MOTION":14.80261339,"ECCENTRICITY":0.0001529,"INCLINATION":97.8597,"RA_OF_ASC_NODE":248.9033,"ARG_OF_PERICENTER":76.7973,"MEAN_ANOMALY":283.3406,"EPHEMERIS_TYPE":0,"CLASSIFICATION_TYPE":"U","NORAD_CAT_ID":44819,"ELEMENT_SET_NO":999,"REV_AT_EPOCH":14701,"BSTAR":3.7094e-5,"MEAN_MOTION_DOT":2.31e-6,"MEAN_MOTION_DDOT":0},{"OBJECT_NAME":"CSG-1","OBJECT_ID":"2019-092A","EPOCH":"2022-08-17T18:15:04.871520","MEAN_MOTION":14.8216052,"ECCENTRICITY":0.0001436,"INCLINATION":97.8891,"RA_OF_ASC_NODE":52.5418,"ARG_OF_PERICENTER":82.9934,"MEAN_ANOMALY":277.1441,"EPHEMERIS_TYPE":0,"CLASSIFICATION_TYPE":"U","NORAD_CAT_ID":44873,"ELEMENT_SET_NO":999,"REV_AT_EPOCH":14418,"BSTAR":3.5333e-5,"MEAN_MOTION_DOT":2.29e-6,"MEAN_MOTION_DDOT":0},{"OBJECT_NAME":"NUSAT-7 (SOPHIE)","OBJECT_ID":"2020-003B","EPOCH":"2022-08-17T19:55:55.845408","MEAN_MOTION":15.36030675,"ECCENTRICITY":0.0013238,"INCLINATION":97.2105,"RA_OF_ASC_NODE":290.399,"ARG_OF_PERICENTER":134.2782,"MEAN_ANOMALY":337.2868,"EPHEMERIS_TYPE":0,"CLASSIFICATION_TYPE":"U","NORAD_CAT_ID":45017,"ELEMENT_SET_NO":999,"REV_AT_EPOCH":14464,"BSTAR":0.00026415,"MEAN_MOTION_DOT":9.216e-5,"MEAN_MOTION_DDOT":0},{"OBJECT_NAME":"NUSAT-8 (MARIE)","OBJECT_ID":"2020-003C","EPOCH":"2022-08-17T14:12:32.103936","MEAN_MOTION":15.3906991,"ECCENTRICITY":0.0011818,"INCLINATION":97.2242,"RA_OF_ASC_NODE":292.2328,"ARG_OF_PERICENTER":134.61,"MEAN_ANOMALY":3.0623,"EPHEMERIS_TYPE":0,"CLASSIFICATION_TYPE":"U","NORAD_CAT_ID":45018,"ELEMENT_SET_NO":999,"REV_AT_EPOCH":14466,"BSTAR":0.00029631,"MEAN_MOTION_DOT":0.00011417,"MEAN_MOTION_DDOT":0},{"OBJECT_NAME":"NUSAT-6 (HYPATIA)","OBJECT_ID":"2020-061A","EPOCH":"2022-08-16T22:05:43.159488","MEAN_MOTION":15.25580647,"ECCENTRICITY":0.000599,"INCLINATION":97.3252,"RA_OF_ASC_NODE":298.6178,"ARG_OF_PERICENTER":205.6219,"MEAN_ANOMALY":154.472,"EPHEMERIS_TYPE":0,"CLASSIFICATION_TYPE":"U","NORAD_CAT_ID":46272,"ELEMENT_SET_NO":999,"REV_AT_EPOCH":10844,"BSTAR":0.00021149,"MEAN_MOTION_DOT":5.301e-5,"MEAN_MOTION_DDOT":0},{"OBJECT_NAME":"NEMO-HD","OBJECT_ID":"2020-061F","EPOCH":"2022-08-17T20:23:13.567776","MEAN_MOTION":15.17785889,"ECCENTRICITY":0.0001497,"INCLINATION":97.3878,"RA_OF_ASC_NODE":299.0285,"ARG_OF_PERICENTER":29.8898,"MEAN_ANOMALY":81.8597,"EPHEMERIS_TYPE":0,"CLASSIFICATION_TYPE":"U","NORAD_CAT_ID":46277,"ELEMENT_SET_NO":999,"REV_AT_EPOCH":10817,"BSTAR":0.00011105,"MEAN_MOTION_DOT":2.178e-5,"MEAN_MOTION_DDOT":0},{"OBJECT_NAME":"NUSAT-12 (DOROTHY)","OBJECT_ID":"2020-079A","EPOCH":"2022-08-17T15:31:29.362368","MEAN_MOTION":15.38827394,"ECCENTRICITY":0.0009388,"INCLINATION":97.194,"RA_OF_ASC_NODE":298.5299,"ARG_OF_PERICENTER":83.7269,"MEAN_ANOMALY":60.8544,"EPHEMERIS_TYPE":0,"CLASSIFICATION_TYPE":"U","NORAD_CAT_ID":46827,"ELEMENT_SET_NO":999,"REV_AT_EPOCH":9951,"BSTAR":0.00030077,"MEAN_MOTION_DOT":0.00011489,"MEAN_MOTION_DDOT":0},{"OBJECT_NAME":"NUSAT-9 (ALICE)","OBJECT_ID":"2020-079B","EPOCH":"2022-08-17T15:05:19.527936","MEAN_MOTION":15.3929242,"ECCENTRICITY":0.000448,"INCLINATION":97.1822,"RA_OF_ASC_NODE":298.105,"ARG_OF_PERICENTER":113.2483,"MEAN_ANOMALY":28.2198,"EPHEMERIS_TYPE":0,"CLASSIFICATION_TYPE":"U","NORAD_CAT_ID":46828,"ELEMENT_SET_NO":999,"REV_AT_EPOCH":9955,"BSTAR":0.0003087,"MEAN_MOTION_DOT":0.00011962,"MEAN_MOTION_DDOT":0},{"OBJECT_NAME":"NUSAT-11 (CORA)","OBJECT_ID":"2020-079C","EPOCH":"2022-08-17T15:05:17.973600","MEAN_MOTION":15.39393357,"ECCENTRICITY":0.0007826,"INCLINATION":97.187,"RA_OF_ASC_NODE":298.4474,"ARG_OF_PERICENTER":95.6359,"MEAN_ANOMALY":45.2067,"EPHEMERIS_TYPE":0,"CLASSIFICATION_TYPE":"U","NORAD_CAT_ID":46829,"ELEMENT_SET_NO":999,"REV_AT_EPOCH":9954,"BSTAR":0.00030613,"MEAN_MOTION_DOT":0.00011909,"MEAN_MOTION_DDOT":0},{"OBJECT_NAME":"NUSAT-15 (KATHERINE)","OBJECT_ID":"2020-079D","EPOCH":"2022-08-17T18:03:59.672736","MEAN_MOTION":15.39291407,"ECCENTRICITY":0.0005083,"INCLINATION":97.2018,"RA_OF_ASC_NODE":299.8342,"ARG_OF_PERICENTER":73.0731,"MEAN_ANOMALY":79.8234,"EPHEMERIS_TYPE":0,"CLASSIFICATION_TYPE":"U","NORAD_CAT_ID":46830,"ELEMENT_SET_NO":999,"REV_AT_EPOCH":9957,"BSTAR":0.0003014,"MEAN_MOTION_DOT":0.00011677,"MEAN_MOTION_DDOT":0},{"OBJECT_NAME":"NUSAT-14 (HEDY)","OBJECT_ID":"2020-079E","EPOCH":"2022-08-17T21:15:10.738080","MEAN_MOTION":15.40170381,"ECCENTRICITY":0.0008942,"INCLINATION":97.1981,"RA_OF_ASC_NODE":299.8126,"ARG_OF_PERICENTER":82.9268,"MEAN_ANOMALY":37.14,"EPHEMERIS_TYPE":0,"CLASSIFICATION_TYPE":"U","NORAD_CAT_ID":46831,"ELEMENT_SET_NO":999,"REV_AT_EPOCH":9960,"BSTAR":0.0003129,"MEAN_MOTION_DOT":0.00012494,"MEAN_MOTION_DDOT":0},{"OBJECT_NAME":"NUSAT-10 (CAROLINE)","OBJECT_ID":"2020-079F","EPOCH":"2022-08-17T21:45:30.570048","MEAN_MOTION":15.39060336,"ECCENTRICITY":0.0008695,"INCLINATION":97.1986,"RA_OF_ASC_NODE":299.5155,"ARG_OF_PERICENTER":93.5379,"MEAN_ANOMALY":24.2795,"EPHEMERIS_TYPE":0,"CLASSIFICATION_TYPE":"U","NORAD_CAT_ID":46832,"ELEMENT_SET_NO":999,"REV_AT_EPOCH":9958,"BSTAR":0.00028025,"MEAN_MOTION_DOT":0.00010778,"MEAN_MOTION_DDOT":0},{"OBJECT_NAME":"NUSAT-13 (EMMY)","OBJECT_ID":"2020-079G","EPOCH":"2022-08-17T15:39:54.218304","MEAN_MOTION":15.38842302,"ECCENTRICITY":0.0008929,"INCLINATION":97.198,"RA_OF_ASC_NODE":299.2412,"ARG_OF_PERICENTER":94.7122,"MEAN_ANOMALY":51.6264,"EPHEMERIS_TYPE":0,"CLASSIFICATION_TYPE":"U","NORAD_CAT_ID":46833,"ELEMENT_SET_NO":999,"REV_AT_EPOCH":9954,"BSTAR":0.00027966,"MEAN_MOTION_DOT":0.00010679,"MEAN_MOTION_DDOT":0},{"OBJECT_NAME":"NUSAT-17 (MARY)","OBJECT_ID":"2020-079J","EPOCH":"2022-08-17T21:11:35.291904","MEAN_MOTION":15.38639321,"ECCENTRICITY":0.0009165,"INCLINATION":97.1977,"RA_OF_ASC_NODE":299.2165,"ARG_OF_PERICENTER":103.8855,"MEAN_ANOMALY":16.7074,"EPHEMERIS_TYPE":0,"CLASSIFICATION_TYPE":"U","NORAD_CAT_ID":46835,"ELEMENT_SET_NO":999,"REV_AT_EPOCH":9956,"BSTAR":0.00028562,"MEAN_MOTION_DOT":0.00010837,"MEAN_MOTION_DDOT":0},{"OBJECT_NAME":"NUSAT-18 (VERA)","OBJECT_ID":"2020-079K","EPOCH":"2022-08-17T15:46:54.799680","MEAN_MOTION":15.3914657,"ECCENTRICITY":0.0009852,"INCLINATION":97.1991,"RA_OF_ASC_NODE":299.437,"ARG_OF_PERICENTER":111.0792,"MEAN_ANOMALY":36.906,"EPHEMERIS_TYPE":0,"CLASSIFICATION_TYPE":"U","NORAD_CAT_ID":46836,"ELEMENT_SET_NO":999,"REV_AT_EPOCH":9955,"BSTAR":0.00029491,"MEAN_MOTION_DOT":0.00011383,"MEAN_MOTION_DDOT":0},{"OBJECT_NAME":"NUSAT-16 (LISE)","OBJECT_ID":"2020-079P","EPOCH":"2022-08-17T18:06:02.744352","MEAN_MOTION":15.3914615,"ECCENTRICITY":0.0006935,"INCLINATION":97.2032,"RA_OF_ASC_NODE":299.6488,"ARG_OF_PERICENTER":103.7844,"MEAN_ANOMALY":49.0554,"EPHEMERIS_TYPE":0,"CLASSIFICATION_TYPE":"U","NORAD_CAT_ID":46840,"ELEMENT_SET_NO":999,"REV_AT_EPOCH":9956,"BSTAR":0.00030645,"MEAN_MOTION_DOT":0.00011823,"MEAN_MOTION_DDOT":0},{"OBJECT_NAME":"SENTINEL-6","OBJECT_ID":"2020-086A","EPOCH":"2022-08-16T05:55:47.035488","MEAN_MOTION":12.80930259,"ECCENTRICITY":0.0007942,"INCLINATION":66.0425,"RA_OF_ASC_NODE":164.8302,"ARG_OF_PERICENTER":264.8557,"MEAN_ANOMALY":95.1551,"EPHEMERIS_TYPE":0,"CLASSIFICATION_TYPE":"U","NORAD_CAT_ID":46984,"ELEMENT_SET_NO":999,"REV_AT_EPOCH":8102,"BSTAR":0,"MEAN_MOTION_DOT":-6.1e-7,"MEAN_MOTION_DDOT":0}]